COSMOS 2251 DEB         
1 38066U 93036BRY 17345.45732928  .00003338  00000-0  62246-3 0  9994
2 38066  74.0254 131.0772 0014033 197.2763 162.7929 14.65358421338564
